[{"OBJECT_NAME":"STARLINK-30936","OBJECT_ID":"2023-192D","EPOCH":"2026-03-09T22:25:52.639392","MEAN_MOTION":15.30185639,"ECCENTRICITY":0.00012615,"INCLINATION":53.1613,"RA_OF_ASC_NODE":51.6347,"ARG_OF_PERICENTER":89.1468,"MEAN_ANOMALY":270.9677,"EPHEMERIS_TYPE":0,"CLASSIFICATION_TYPE":"U","NORAD_CAT_ID":58534,"ELEMENT_SET_NO":999,"REV_AT_EPOCH":12616,"BSTAR":2.6179759e-5,"MEAN_MOTION_DOT":4.16e-6,"MEAN_MOTION_DDOT":0},{"OBJECT_NAME":"MESON-1","OBJECT_ID":"2024-043AK","EPOCH":"2026-03-09T21:36:16.481664","MEAN_MOTION":15.29893494,"ECCENTRICITY":0.00095452,"INCLINATION":97.5469,"RA_OF_ASC_NODE":205.2839,"ARG_OF_PERICENTER":227.1432,"MEAN_ANOMALY":132.9007,"EPHEMERIS_TYPE":0,"CLASSIFICATION_TYPE":"U","NORAD_CAT_ID":59131,"ELEMENT_SET_NO":999,"REV_AT_EPOCH":11189,"BSTAR":0.0002974823,"MEAN_MOTION_DOT":8.544e-5,"MEAN_MOTION_DDOT":0}]
